NUSAT-50 (NANCY ROMAN)  
1 60493U 24149AB  26068.80227738  .00012094  00000+0  42252-3 0  9994
2 60493  97.3817 150.7693 0002523 238.0469 122.0527 15.29713355 86930
STARLINK-32511          
1 61727U 24196W   26068.40846629 -.00000347  00000+0  41249-6 0  9996
2 61727  53.1604 102.6371 0001462  75.5424 284.5739 15.30187767 77113
